IRIDIUM 166             
1 43570U 18061B   24281.70409269  .00000753  00000+0  26186-3 0  9999
2 43570  86.3949 314.8002 0002260  97.5792 262.5661 14.34224325324891
IRIDIUM 158             
1 43571U 18061C   24282.57937357  .00000285  00000+0  94666-4 0  9999
2 43571  86.3950 314.4441 0002291  98.8581 261.2875 14.34217079324982
IRIDIUM 165             
1 43572U 18061D   24282.53498239  .00000148  00000+0  45753-4 0  9998
2 43572  86.3948 314.4968 0002210  92.1182 268.0267 14.34217685325006
IRIDIUM 155             
1 43573U 18061E   24282.56669356  .00000956  00000+0  33435-3 0  9992
2 43573  86.3945 314.3831 0002336  97.3082 262.8379 14.34220476324970
IRIDIUM 154             
1 43574U 18061F   24282.54766689  .00000044  00000+0  86619-5 0  9990
2 43574  86.3946 314.4937 0001962  91.4749 268.6671 14.34217656325021
IRIDIUM 163             
1 43575U 18061G   24282.52863621  .00000254  00000+0  83804-4 0  9998
2 43575  86.3947 314.4367 0002035  95.8715 264.2712 14.34216653324992
IRIDIUM 156             
1 43576U 18061H   24282.57303310  .00000014  00000+0 -21582-5 0  9999
2 43576  86.3947 314.4257 0002488  99.9016 260.2461 14.34216908324992
IRIDIUM 164             
1 43577U 18061J   24282.55400704  .00000791  00000+0  27548-3 0  9990
2 43577  86.3946 314.4633 0002215  88.9406 271.2044 14.34219040325034
